CCSDS_OMM_VERS = 2.0
CREATION_DATE  = 
ORIGINATOR     = 

OBJECT_NAME    = SL-3 R/B
OBJECT_ID      = 1982-079B
CENTER_NAME    = EARTH
REF_FRAME      = TEME
TIME_SYSTEM    = UTC
MEAN_ELEMENT_THEORY = SGP/SGP4

EPOCH          = 2025-11-20T17:49:35.069664
MEAN_MOTION    = 15.23248339
ECCENTRICITY   = .0025858
INCLINATION    = 81.1455
RA_OF_ASC_NODE = 321.5860
ARG_OF_PERICENTER = 170.7152
MEAN_ANOMALY   = 189.4564

EPHEMERIS_TYPE = 0
CLASSIFICATION_TYPE = U
NORAD_CAT_ID   = 13403
ELEMENT_SET_NO = 999
REV_AT_EPOCH   = 36110
BSTAR          = .23934E-3
MEAN_MOTION_DOT = .5747E-4
MEAN_MOTION_DDOT = 0

CCSDS_OMM_VERS = 2.0
CREATION_DATE  = 
ORIGINATOR     = 

OBJECT_NAME    = SL-14 R/B
OBJECT_ID      = 1982-092B
CENTER_NAME    = EARTH
REF_FRAME      = TEME
TIME_SYSTEM    = UTC
MEAN_ELEMENT_THEORY = SGP/SGP4

EPOCH          = 2025-11-20T17:29:41.872704
MEAN_MOTION    = 14.86521560
ECCENTRICITY   = .0019113
INCLINATION    = 82.5687
RA_OF_ASC_NODE = 243.2942
ARG_OF_PERICENTER = 305.7801
MEAN_ANOMALY   = 73.4474

EPHEMERIS_TYPE = 0
CLASSIFICATION_TYPE = U
NORAD_CAT_ID   = 13553
ELEMENT_SET_NO = 999
REV_AT_EPOCH   = 31274
BSTAR          = .73678E-4
MEAN_MOTION_DOT = .678E-5
MEAN_MOTION_DDOT = 0

CCSDS_OMM_VERS = 2.0
CREATION_DATE  = 
ORIGINATOR     = 

OBJECT_NAME    = SL-3 R/B
OBJECT_ID      = 1983-010B
CENTER_NAME    = EARTH
REF_FRAME      = TEME
TIME_SYSTEM    = UTC
MEAN_ELEMENT_THEORY = SGP/SGP4

EPOCH          = 2025-11-20T11:08:40.106976
MEAN_MOTION    = 15.42660173
ECCENTRICITY   = .0018151
INCLINATION    = 81.1019
RA_OF_ASC_NODE = 135.7916
ARG_OF_PERICENTER = 67.4496
MEAN_ANOMALY   = 292.8665

EPHEMERIS_TYPE = 0
CLASSIFICATION_TYPE = U
NORAD_CAT_ID   = 13819
ELEMENT_SET_NO = 999
REV_AT_EPOCH   = 34108
BSTAR          = .28666E-3
MEAN_MOTION_DOT = .12598E-3
MEAN_MOTION_DDOT = 0

CCSDS_OMM_VERS = 2.0
CREATION_DATE  = 
ORIGINATOR     = 

OBJECT_NAME    = SL-3 R/B
OBJECT_ID      = 1983-075B
CENTER_NAME    = EARTH
REF_FRAME      = TEME
TIME_SYSTEM    = UTC
MEAN_ELEMENT_THEORY = SGP/SGP4

EPOCH          = 2025-11-20T18:21:52.151616
MEAN_MOTION    = 15.35525808
ECCENTRICITY   = .0020915
INCLINATION    = 97.6097
RA_OF_ASC_NODE = 320.5220
ARG_OF_PERICENTER = 258.1832
MEAN_ANOMALY   = 101.7066

EPHEMERIS_TYPE = 0
CLASSIFICATION_TYPE = U
NORAD_CAT_ID   = 14208
ELEMENT_SET_NO = 999
REV_AT_EPOCH   = 31342
BSTAR          = .29264E-3
MEAN_MOTION_DOT = .10091E-3
MEAN_MOTION_DDOT = 0

CCSDS_OMM_VERS = 2.0
CREATION_DATE  = 
ORIGINATOR     = 

OBJECT_NAME    = COSMOS 1536
OBJECT_ID      = 1984-013A
CENTER_NAME    = EARTH
REF_FRAME      = TEME
TIME_SYSTEM    = UTC
MEAN_ELEMENT_THEORY = SGP/SGP4

EPOCH          = 2025-11-20T10:59:32.165088
MEAN_MOTION    = 15.22176708
ECCENTRICITY   = .0013715
INCLINATION    = 82.5474
RA_OF_ASC_NODE = 216.2525
ARG_OF_PERICENTER = 313.2767
MEAN_ANOMALY   = 46.7324

EPHEMERIS_TYPE = 0
CLASSIFICATION_TYPE = U
NORAD_CAT_ID   = 14699
ELEMENT_SET_NO = 999
REV_AT_EPOCH   = 25599
BSTAR          = .29522E-3
MEAN_MOTION_DOT = .6822E-4
MEAN_MOTION_DDOT = 0

CCSDS_OMM_VERS = 2.0
CREATION_DATE  = 
ORIGINATOR     = 

OBJECT_NAME    = SL-14 R/B
OBJECT_ID      = 1984-027B
CENTER_NAME    = EARTH
REF_FRAME      = TEME
TIME_SYSTEM    = UTC
MEAN_ELEMENT_THEORY = SGP/SGP4

EPOCH          = 2025-11-20T11:12:33.704064
MEAN_MOTION    = 14.85840681
ECCENTRICITY   = .0017377
INCLINATION    = 82.5417
RA_OF_ASC_NODE = 347.4451
ARG_OF_PERICENTER = 340.1443
MEAN_ANOMALY   = 19.9095

EPHEMERIS_TYPE = 0
CLASSIFICATION_TYPE = U
NORAD_CAT_ID   = 14820
ELEMENT_SET_NO = 999
REV_AT_EPOCH   = 23141
BSTAR          = .59175E-4
MEAN_MOTION_DOT = .54E-5
MEAN_MOTION_DDOT = 0

CCSDS_OMM_VERS = 2.0
CREATION_DATE  = 
ORIGINATOR     = 

OBJECT_NAME    = SL-8 R/B
OBJECT_ID      = 1985-006B
CENTER_NAME    = EARTH
REF_FRAME      = TEME
TIME_SYSTEM    = UTC
MEAN_ELEMENT_THEORY = SGP/SGP4

EPOCH          = 2025-11-20T16:24:49.596768
MEAN_MOTION    = 14.37701110
ECCENTRICITY   = .0017762
INCLINATION    = 74.0445
RA_OF_ASC_NODE = 101.7119
ARG_OF_PERICENTER = 40.4777
MEAN_ANOMALY   = 330.8805

EPHEMERIS_TYPE = 0
CLASSIFICATION_TYPE = U
NORAD_CAT_ID   = 15483
ELEMENT_SET_NO = 999
REV_AT_EPOCH   = 13836
BSTAR          = .10012E-3
MEAN_MOTION_DOT = .275E-5
MEAN_MOTION_DDOT = 0

CCSDS_OMM_VERS = 2.0
CREATION_DATE  = 
ORIGINATOR     = 

OBJECT_NAME    = SL-12 R/B(2)
OBJECT_ID      = 1985-042D
CENTER_NAME    = EARTH
REF_FRAME      = TEME
TIME_SYSTEM    = UTC
MEAN_ELEMENT_THEORY = SGP/SGP4

EPOCH          = 2025-11-20T10:55:53.879808
MEAN_MOTION    = 14.21941793
ECCENTRICITY   = .0037486
INCLINATION    = 71.1077
RA_OF_ASC_NODE = 318.4990
ARG_OF_PERICENTER = 294.0966
MEAN_ANOMALY   = 176.7858

EPHEMERIS_TYPE = 0
CLASSIFICATION_TYPE = U
NORAD_CAT_ID   = 15772
ELEMENT_SET_NO = 999
REV_AT_EPOCH   = 9886
BSTAR          = .76419E-4
MEAN_MOTION_DOT = .122E-5
MEAN_MOTION_DDOT = 0

CCSDS_OMM_VERS = 2.0
CREATION_DATE  = 
ORIGINATOR     = 

OBJECT_NAME    = SL-14 R/B
OBJECT_ID      = 1985-069B
CENTER_NAME    = EARTH
REF_FRAME      = TEME
TIME_SYSTEM    = UTC
MEAN_ELEMENT_THEORY = SGP/SGP4

EPOCH          = 2025-11-20T11:38:19.851072
MEAN_MOTION    = 14.86285356
ECCENTRICITY   = .0018522
INCLINATION    = 82.5247
RA_OF_ASC_NODE = 127.6255
ARG_OF_PERICENTER = 189.8255
MEAN_ANOMALY   = 170.2603

EPHEMERIS_TYPE = 0
CLASSIFICATION_TYPE = U
NORAD_CAT_ID   = 15945
ELEMENT_SET_NO = 999
REV_AT_EPOCH   = 15661
BSTAR          = .71445E-4
MEAN_MOTION_DOT = .655E-5
MEAN_MOTION_DDOT = 0

CCSDS_OMM_VERS = 2.0
CREATION_DATE  = 
ORIGINATOR     = 

OBJECT_NAME    = SL-16 R/B
OBJECT_ID      = 1985-097B
CENTER_NAME    = EARTH
REF_FRAME      = TEME
TIME_SYSTEM    = UTC
MEAN_ELEMENT_THEORY = SGP/SGP4

EPOCH          = 2025-11-20T15:04:41.473056
MEAN_MOTION    = 14.16579784
ECCENTRICITY   = .000555
INCLINATION    = 71.0043
RA_OF_ASC_NODE = 10.1549
ARG_OF_PERICENTER = 51.3124
MEAN_ANOMALY   = 118.9381

EPHEMERIS_TYPE = 0
CLASSIFICATION_TYPE = U
NORAD_CAT_ID   = 16182
ELEMENT_SET_NO = 999
REV_AT_EPOCH   = 7178
BSTAR          = .17626E-3
MEAN_MOTION_DOT = .304E-5
MEAN_MOTION_DDOT = 0

CCSDS_OMM_VERS = 2.0
CREATION_DATE  = 
ORIGINATOR     = 

OBJECT_NAME    = SL-14 R/B
OBJECT_ID      = 1986-006B
CENTER_NAME    = EARTH
REF_FRAME      = TEME
TIME_SYSTEM    = UTC
MEAN_ELEMENT_THEORY = SGP/SGP4

EPOCH          = 2025-11-20T05:15:44.913312
MEAN_MOTION    = 14.86627265
ECCENTRICITY   = .00752093
INCLINATION    = 82.5281
RA_OF_ASC_NODE = 2.7417
ARG_OF_PERICENTER = 275.7055
MEAN_ANOMALY   = 83.5590

EPHEMERIS_TYPE = 0
CLASSIFICATION_TYPE = U
NORAD_CAT_ID   = 16496
ELEMENT_SET_NO = 999
REV_AT_EPOCH   = 13294
BSTAR          = .80663473E-4
MEAN_MOTION_DOT = .778E-5
MEAN_MOTION_DDOT = 0

CCSDS_OMM_VERS = 2.0
CREATION_DATE  = 
ORIGINATOR     = 

OBJECT_NAME    = COSMOS 1743
OBJECT_ID      = 1986-034A
CENTER_NAME    = EARTH
REF_FRAME      = TEME
TIME_SYSTEM    = UTC
MEAN_ELEMENT_THEORY = SGP/SGP4

EPOCH          = 2025-11-20T08:04:47.176032
MEAN_MOTION    = 15.50679936
ECCENTRICITY   = .0006096
INCLINATION    = 82.5361
RA_OF_ASC_NODE = 187.8318
ARG_OF_PERICENTER = 350.8837
MEAN_ANOMALY   = 9.2303

EPHEMERIS_TYPE = 0
CLASSIFICATION_TYPE = U
NORAD_CAT_ID   = 16719
ELEMENT_SET_NO = 999
REV_AT_EPOCH   = 16326
BSTAR          = .44444E-3
MEAN_MOTION_DOT = .256E-3
MEAN_MOTION_DDOT = 0

